NORAD_CAT_ID,OBJECT_NAME,OBJECT_TYPE,EPOCH,MEAN_MOTION,ECCENTRICITY,INCLINATION,RA_OF_ASC_NODE,ARG_OF_PERICENTER,MEAN_ANOMALY,BSTAR,MEAN_MOTION_DOT,MEAN_MOTION_DDOT,TLE_LINE0,TLE_LINE1,TLE_LINE2,SEMIMAJOR_AXIS,PERIOD,APOGEE,PERIGEE,DECAYED
53606.0,STARLINK-4590,PAYLOAD,2023-07-03 01:45:26,15.08838017,8.86e-05,53.217,316.3921,86.1893,273.92,7.8168e-05,9.56e-06,0.0,0 STARLINK-4590,1 53606U 22104U   23184.07321857  .00000956  00000-0  78168-4 0  9994,2 53606  53.2170 316.3921 0000886  86.1893 273.9200 15.08838017 47029,6917.886,95.438,540.364,539.139,0.0
53606.0,STARLINK-4590,PAYLOAD,2023-07-04 11:08:32,15.0883831,0.0001007,53.2167,310.1487,83.3922,276.7185,-7.9205e-08,-2.89e-06,0.0,0 STARLINK-4590,1 53606U 22104U   23185.46426113 -.00000289  00000-0 -79205-7 0  9996,2 53606  53.2167 310.1487 0001007  83.3922 276.7185 15.08838310 47234,6917.886,95.438,540.447,539.054,0.0
53606.0,STARLINK-4590,PAYLOAD,2023-07-05 14:10:06,15.08827324,0.0001097,53.2172,305.0945,86.7663,273.3455,-8.2535e-05,-1.601e-05,0.0,0 STARLINK-4590,1 53606U 22104U   23186.59035226 -.00001601  00000-0 -82535-4 0  9998,2 53606  53.2172 305.0945 0001097  86.7663 273.3455 15.08827324 47405,6917.919,95.438,540.543,539.025,0.0
53606.0,STARLINK-4590,PAYLOAD,2023-07-06 17:11:38,15.08849906,0.0001034,53.2177,300.0387,86.4943,273.6167,0.0001511,2.118e-05,0.0,0 STARLINK-4590,1 53606U 22104U   23187.71642143  .00002118  00000-0  15110-3 0  9991,2 53606  53.2177 300.0387 0001034  86.4943 273.6167 15.08849906 47575,6917.85,95.437,540.43,539.0,0.0
53606.0,STARLINK-4590,PAYLOAD,2023-07-07 10:40:53,15.08844618,9.96e-05,53.2177,296.7677,85.7337,274.3769,0.00026092,3.868e-05,0.0,0 STARLINK-4590,1 53606U 22104U   23188.44506365  .00003868  00000-0  26092-3 0  9991,2 53606  53.2177 296.7677 0000996  85.7337 274.3769 15.08844618 47686,6917.866,95.437,540.42,539.042,0.0
53606.0,STARLINK-4590,PAYLOAD,2023-07-07 21:48:35,15.08860551,0.0001013,53.2158,294.686,80.4784,279.6323,0.00042775,6.53e-05,0.0,0 STARLINK-4590,1 53606U 22104U   23188.90874039  .00006530  00000-0  42775-3 0  9993,2 53606  53.2158 294.6860 0001013  80.4784 279.6323 15.08860551 47751,6917.818,95.436,540.383,538.982,0.0
53606.0,STARLINK-4590,PAYLOAD,2023-07-08 18:28:35,15.08853006,8.58e-05,53.2164,290.8209,84.2995,275.8095,0.00015855,2.237e-05,0.0,0 STARLINK-4590,1 53606U 22104U   23189.76985831  .00002237  00000-0  15855-3 0  9990,2 53606  53.2164 290.8209 0000858  84.2995 275.8095 15.08853006 47880,6917.841,95.437,540.299,539.112,0.0
53606.0,STARLINK-4590,PAYLOAD,2023-07-08 23:14:45,15.08839432,0.0001198,53.2167,289.9271,81.5223,278.5905,-7.4481e-05,-1.473e-05,0.0,0 STARLINK-4590,1 53606U 22104U   23189.96858364 -.00001473  00000-0 -74481-4 0  9996,2 53606  53.2167 289.9271 0001198  81.5223 278.5905 15.08839432 47914,6917.882,95.438,540.576,538.918,0.0
53606.0,STARLINK-4590,PAYLOAD,2023-07-10 13:24:01,15.08847877,9.3e-05,53.2159,282.7921,89.3203,270.7895,0.00039368,5.984e-05,0.0,0 STARLINK-4590,1 53606U 22104U   23191.55834665  .00005984  00000-0  39368-3 0  9995,2 53606  53.2159 282.7921 0000930  89.3203 270.7895 15.08847877 48156,6917.856,95.437,540.365,539.078,0.0
53606.0,STARLINK-4590,PAYLOAD,2023-07-10 22:56:20,15.08838707,0.0001185,53.2157,281.005,84.403,275.7098,0.0001664,2.361e-05,0.0,0 STARLINK-4590,1 53606U 22104U   23191.95578955  .00002361  00000-0  16640-3 0  9990,2 53606  53.2157 281.0050 0001185  84.4030 275.7098 15.08838707 48215,6917.884,95.438,540.569,538.93,0.0
53606.0,STARLINK-4590,PAYLOAD,2023-07-11 18:00:57,15.08849159,0.0001125,53.2156,277.4371,94.2137,265.8984,0.00026942,4.004e-05,0.0,0 STARLINK-4590,1 53606U 22104U   23192.75066482  .00004004  00000-0  26942-3 0  9998,2 53606  53.2156 277.4371 0001125  94.2137 265.8984 15.08849159 48330,6917.852,95.437,540.496,538.939,0.0
53606.0,STARLINK-4590,PAYLOAD,2023-07-13 11:20:58,15.08842145,9.47e-05,53.2157,269.7053,83.6691,276.4409,6.6799e-05,7.76e-06,0.0,0 STARLINK-4590,1 53606U 22104U   23194.47290385  .00000776  00000-0  66799-4 0  9997,2 53606  53.2157 269.7053 0000947  83.6691 276.4409 15.08842145 48596,6917.874,95.437,540.394,539.084,0.0
53606.0,STARLINK-4590,PAYLOAD,2023-07-14 09:36:24,15.08808391,0.0001149,53.2161,265.5468,62.2323,297.8786,0.00075469,0.00011733,0.0,0 STARLINK-4590,1 53606U 22104U   23195.40028097  .00011733  00000-0  75469-3 0  9998,2 53606  53.2161 265.5468 0001149  62.2323 297.8786 15.08808391 48731,6917.977,95.44,540.637,539.047,0.0
53606.0,STARLINK-4590,PAYLOAD,2023-07-14 15:57:55,15.08837442,8.84e-05,53.2152,264.3538,98.7768,261.3324,0.00021984,3.213e-05,0.0,0 STARLINK-4590,1 53606U 22104U   23195.66523042  .00003213  00000-0  21984-3 0  9993,2 53606  53.2152 264.3538 0000884  98.7768 261.3324 15.08837442 48775,6917.888,95.438,540.365,539.142,0.0
53606.0,STARLINK-4590,PAYLOAD,2023-07-16 04:31:48,15.08833515,0.0001249,53.2151,257.5148,83.1307,276.9827,5.1331e-05,5.29e-06,0.0,0 STARLINK-4590,1 53606U 22104U   23197.18875556  .00000529  00000-0  51331-4 0  9999,2 53606  53.2151 257.5148 0001249  83.1307 276.9827 15.08833515 49002,6917.9,95.438,540.629,538.901,0.0
53606.0,STARLINK-4590,PAYLOAD,2023-07-17 10:44:07,15.08851249,9.13e-05,53.2151,251.8659,84.02,276.0896,0.00045825,7.015e-05,0.0,0 STARLINK-4590,1 53606U 22104U   23198.44731209  .00007015  00000-0  45825-3 0  9992,2 53606  53.2151 251.8659 0000913  84.0200 276.0896 15.08851249 49196,6917.846,95.437,540.343,539.079,0.0
53606.0,STARLINK-4590,PAYLOAD,2023-07-18 10:34:54,15.08846026,9.56e-05,53.2146,247.4059,83.941,276.1692,0.00020704,3.009e-05,0.0,0 STARLINK-4590,1 53606U 22104U   23199.44091249  .00003009  00000-0  20704-3 0  9994,2 53606  53.2146 247.4059 0000956  83.9410 276.1692 15.08846026 49342,6917.862,95.437,540.388,539.066,0.0
53606.0,STARLINK-4590,PAYLOAD,2023-07-19 08:50:19,15.088352,0.0001212,53.2156,243.244,95.4757,264.6373,-6.6374e-05,-1.344e-05,0.0,0 STARLINK-4590,1 53606U 22104U   23200.36827704 -.00001344  00000-0 -66374-4 0  9997,2 53606  53.2156 243.2440 0001212  95.4757 264.6373 15.08835200 49484,6917.895,95.438,540.599,538.922,0.0
53606.0,STARLINK-4590,PAYLOAD,2023-07-20 15:02:39,15.08840217,0.0001196,53.2169,237.5897,81.2927,278.82,5.123e-05,5.28e-06,0.0,0 STARLINK-4590,1 53606U 22104U   23201.62684171  .00000528  00000-0  51230-4 0  9992,2 53606  53.2169 237.5897 0001196  81.2927 278.8200 15.08840217 49674,6917.88,95.438,540.572,538.917,0.0
53606.0,STARLINK-4590,PAYLOAD,2023-07-24 12:50:24,15.08837734,0.0001133,53.2156,220.0468,89.3281,270.7841,3.6661e-05,2.96e-06,0.0,0 STARLINK-4590,1 53606U 22104U   23205.53500240  .00000296  00000-0  36661-4 0  9993,2 53606  53.2156 220.0468 0001133  89.3281 270.7841 15.08837734 50836,6917.887,95.438,540.536,538.969,0.0
53606.0,STARLINK-4590,PAYLOAD,2023-07-25 11:05:48,15.08838877,0.0001078,53.216,215.8826,91.7005,268.4111,3.9964e-05,3.48e-06,0.0,0 STARLINK-4590,1 53606U 22104U   23206.46236292  .00000348  00000-0  39964-4 0  9996,2 53606  53.2160 215.8826 0001078  91.7005 268.4111 15.08838877 50978,6917.884,95.438,540.495,539.003,0.0
53606.0,STARLINK-4590,PAYLOAD,2023-07-26 09:21:12,15.08838518,0.0001159,53.2149,211.7212,80.5516,279.5608,7.3284e-05,8.79e-06,0.0,0 STARLINK-4590,1 53606U 22104U   23207.38972487  .00000879  00000-0  73284-4 0  9993,2 53606  53.2149 211.7212 0001159  80.5516 279.5608 15.08838518 51115,6917.885,95.438,540.552,538.948,0.0
53606.0,STARLINK-4590,PAYLOAD,2023-07-27 09:11:59,15.0884147,0.0001119,53.2153,207.2604,84.0208,276.0912,7.5926e-05,9.21e-06,0.0,0 STARLINK-4590,1 53606U 22104U   23208.38332359  .00000921  00000-0  75926-4 0  9995,2 53606  53.2153 207.2604 0001119  84.0208 276.0912 15.08841470 50691,6917.876,95.437,540.515,538.967,0.0
53606.0,STARLINK-4590,PAYLOAD,2023-07-27 17:08:55,15.08839214,0.0001133,53.2153,205.7738,84.5715,275.5406,4.8701e-05,4.87e-06,0.0,0 STARLINK-4590,1 53606U 22104U   23208.71452560  .00000487  00000-0  48701-4 0  9997,2 53606  53.2153 205.7738 0001133  84.5715 275.5406 15.08839214 51311,6917.883,95.438,540.532,538.964,0.0
53606.0,STARLINK-4590,PAYLOAD,2023-07-28 09:02:46,15.08839018,0.0001113,53.2154,202.7995,88.4326,271.6794,3.8979e-05,3.33e-06,0.0,0 STARLINK-4590,1 53606U 22104U   23209.37692671  .00000333  00000-0  38979-4 0  9995,2 53606  53.2154 202.7995 0001113  88.4326 271.6794 15.08839018 50849,6917.883,95.438,540.518,538.978,0.0
53606.0,STARLINK-4590,PAYLOAD,2023-07-29 10:28:56,15.0884237,0.0001128,53.2155,198.0408,89.6118,270.5004,4.0653e-05,3.59e-06,0.0,0 STARLINK-4590,1 53606U 22104U   23210.43676545  .00000359  00000-0  40653-4 0  9996,2 53606  53.2155 198.0408 0001128  89.6118 270.5004 15.08842370 51000,6917.873,95.437,540.518,538.958,0.0
53606.0,STARLINK-4590,PAYLOAD,2023-07-31 02:13:35,15.0883834,0.0001281,53.216,190.6055,108.3853,251.7278,3.8944e-05,3.32e-06,0.0,0 STARLINK-4590,1 53606U 22104U   23212.09276725  .00000332  00000-0  38944-4 0  9997,2 53606  53.2160 190.6055 0001281 108.3853 251.7278 15.08838340 51250,6917.885,95.438,540.637,538.864,0.0
53606.0,STARLINK-4590,PAYLOAD,2023-08-01 05:15:08,15.08839795,0.0001279,53.2167,185.5517,101.8513,258.2622,-7.8449e-06,-4.13e-06,0.0,0 STARLINK-4590,1 53606U 22104U   23213.21884936 -.00000413  00000-0 -78449-5 0  9998,2 53606  53.2167 185.5517 0001279 101.8513 258.2622 15.08839795 51420,6917.881,95.438,540.631,538.861,0.0
53606.0,STARLINK-4590,PAYLOAD,2023-08-02 08:16:41,15.0884103,0.0001197,53.2166,180.4969,97.4147,262.6981,7.2608e-05,8.68e-06,0.0,0 STARLINK-4590,1 53606U 22104U   23214.34492908  .00000868  00000-0  72608-4 0  9999,2 53606  53.2166 180.4969 0001197  97.4147 262.6981 15.08841030 51596,6917.877,95.437,540.57,538.914,0.0
53606.0,STARLINK-4590,PAYLOAD,2023-08-02 14:38:14,15.08835899,0.0001168,53.2165,179.3075,96.5183,263.5942,3.169e-05,2.17e-06,0.0,0 STARLINK-4590,1 53606U 22104U   23214.60989401  .00000217  00000-0  31690-4 0  9991,2 53606  53.2165 179.3075 0001168  96.5183 263.5942 15.08835899 51636,6917.893,95.438,540.566,538.95,0.0
